TJS-16                  
1 63397U 25064A   26087.77222098 -.00000124  00000+0  00000+0 0  9991
2 63397   0.8913  81.7589 0005078 265.7162 277.2944  1.00271562  3583
